JCSAT-3A                
1 29272U 06033A   26193.30320566 -.00000343  00000+0  00000+0 0  9999
2 29272   0.0153 329.1400 0002479 160.4625  37.7366  1.00269256 47990
KOREASAT 5 (MUGUNGWHA 5)
1 29349U 06034A   26193.07683522 -.00000357  00000+0  00000+0 0  9998
2 29349   1.8467  82.6818 0001682  78.9364 269.0768  1.00271387 41565
DIRECTV 9S              
1 29494U 06043A   26193.18645175 -.00000113  00000+0  00000+0 0  9993
2 29494   2.4826  80.6012 0004990  32.8547 142.5473  1.00270977 51634
OPTUS D1                
1 29495U 06043B   26193.16527799 -.00000185  00000+0  00000+0 0  9992
2 29495   3.0964  79.3487 0003300  30.3604  31.8162  1.00270355 72376
BADR-4                  
1 29526U 06051A   26193.21330880  .00000156  00000+0  00000+0 0  9992
2 29526   2.0667  80.8445 0004704  28.2404 292.2686  1.00269589 51518
WILDBLUE-1              
1 29643U 06054A   26193.30739295 -.00000050  00000+0  00000+0 0  9992
2 29643   2.8652  80.1685 0001245  34.3540 175.1317  1.00270998 54042
SKYNET 5A               
1 30794U 07007B   26193.12316775 -.00000274  00000+0  00000+0 0  9992
2 30794   5.3617  73.4363 0003689  41.0189 315.1191  1.00270507 70945
ANIK F3                 
1 31102U 07009A   26192.96915877  .00000001  00000+0  00000+0 0  9994
2 31102   1.2589  83.5537 0002480  37.2214  39.2783  1.00272014 46816
ASTRA 1L                
1 31306U 07016A   26193.32544795 -.00000184  00000+0  00000+0 0  9999
2 31306   1.3841  81.3738 0005171  32.7427 268.7559  1.00271550 45238
GALAXY 17 (G-17)        
1 31307U 07016B   26193.22417081 -.00000207  00000+0  00000+0 0  9992
2 31307   3.0323  79.5853 0003550  33.3180 172.8914  1.00270557 70056
INTELSAT 11 (IS-11)     
1 32253U 07044B   26193.20966877 -.00000087  00000+0  00000+0 0  9990
2 32253   3.6279  78.3654 0004073 100.4098 202.5186  0.99051203 68695
WGS F1 (USA 195)        
1 32258U 07046A   26193.19814205 -.00000265  00000+0  00000+0 0  9990
2 32258   0.0130  77.5508 0000549 139.9607 101.4167  1.00268860 52582
SKYNET 5B               
1 32294U 07056B   26192.92634524  .00000138  00000+0  00000+0 0  9993
2 32294   5.3129  73.2088 0003750  38.9358 176.2440  1.00273134 68448
ASTRA 4A                
1 32299U 07057A   26193.20750209  .00000035  00000+0  00000+0 0  9996
2 32299   0.0470 282.5960 0002247 195.2159 251.7840  1.00270373 51890
HORIZONS-2              
1 32388U 07063B   26193.19184209 -.00000254  00000+0  00000+0 0  9995
2 32388   2.6639  80.3195 0003541  18.3335 186.6993  1.00270162 68065
THURAYA-3               
1 32404U 08001A   26193.14785791  .00000007  00000+0  00000+0 0  9990
2 32404   6.0301  35.8158 0002097  76.4091 294.7397  1.00271057 67748
THOR 5                  
1 32487U 08006A   26193.31433816 -.00000007  00000+0  00000+0 0  9994
2 32487   0.0529 235.9810 0002275 244.2266 282.4031  1.00270686 67566
AMC-14                  
1 32708U 08011A   26193.02247616 -.00000170  00000+0  00000+0 0  9996
2 32708  24.0389  20.2198 0039712   8.3023 346.5606  1.00420296 68411
DIRECTV 11              
1 32729U 08013A   26193.22909459 -.00000124  00000+0  00000+0 0  9992
2 32729   0.0131 265.5675 0000193 253.6452 114.1984  1.00272707 45841
ICO G1                  
1 32763U 08016A   26193.11678198 -.00000174  00000+0  00000+0 0  9999
2 32763   5.5300  36.0586 0002218  66.5620 136.5857  1.00272753 66792
VINASAT-1               
1 32767U 08018A   26193.30389899 -.00000326  00000+0  00000+0 0  9992
2 32767   0.0355 291.5855 0001392 200.2172  39.7416  1.00270579 66849
STAR ONE C2             
1 32768U 08018B   26193.19058855 -.00000276  00000+0  00000+0 0  9999
2 32768   1.3015  82.2273 0002660  44.5300 166.9357  1.00271950 66905
AMOS-3                  
1 32794U 08022A   26193.14673123  .00000027  00000+0  00000+0 0  9992
2 32794   0.5171  85.8548 0002965  84.6797 230.2120  1.00487197 82582
GALAXY 18 (G-18)        
1 32951U 08024A   26193.23933588  .00000000  00000+0  00000+0 0  9994
2 32951   0.0293  51.8695 0002830  75.4445 125.9860  1.00270349 46100
ZHONGXING-9             
1 33051U 08028A   26193.29609896 -.00000247  00000+0  00000+0 0  9992
2 33051   0.8293  85.0346 0003300  20.9072  23.2179  1.00270301 66299
SKYNET 5C               
1 33055U 08030A   26192.84656384 -.00000140  00000+0  00000+0 0  9995
2 33055   3.8493  76.7464 0004038  43.8105  96.1422  1.00272518 66209
TURKSAT 3A              
1 33056U 08030B   26193.21486880  .00000149  00000+0  00000+0 0  9998
2 33056   0.0269  68.1003 0004921  24.3388 317.0163  1.00268689 52602
ECHOSTAR 11             
1 33207U 08035A   26193.30739295 -.00000057  00000+0  00000+0 0  9991
2 33207   1.0675  83.8914 0002203  15.5435 191.6276  1.00270539 51464
SUPERBIRD-C2            
1 33274U 08038A   26193.30476566 -.00000307  00000+0  00000+0 0  9995
2 33274   2.4231  80.9502 0006116  39.0010  55.9647  1.00270173105984
INMARSAT 4-F3           
1 33278U 08039A   26193.30183786 -.00000141  00000+0  00000+0 0  9995
2 33278   4.3145  31.6954 0002789  84.5633 184.5941  1.00271478 46793
NIMIQ 4                 
1 33373U 08044A   26193.19028208 -.00000218  00000+0  00000+0 0  9996
2 33373   0.0038 358.8258 0001999  93.7324 184.0202  1.00272621 65231
GALAXY 19 (G-19)        
1 33376U 08045A   26193.18731841 -.00000137  00000+0  00000+0 0  9993
2 33376   0.0533 243.6306 0002331 237.1759 139.7058  1.00272129 65156
