OBJECT_NAME,OBJECT_ID,EPOCH,MEAN_MOTION,ECCENTRICITY,INCLINATION,RA_OF_ASC_NODE,ARG_OF_PERICENTER,MEAN_ANOMALY,EPHEMERIS_TYPE,CLASSIFICATION_TYPE,NORAD_CAT_ID,ELEMENT_SET_NO,REV_AT_EPOCH,BSTAR,MEAN_MOTION_DOT,MEAN_MOTION_DDOT
JCSAT-3A,2006-033A,2026-07-12T07:16:36.969024,1.00269256,.00024794,0.0153,329.1400,160.4625,37.7366,0,U,29272,999,4799,0,-.343E-5,0
KOREASAT 5 (MUGUNGWHA 5),2006-034A,2026-07-12T01:50:38.563008,1.00271387,.00016822,1.8467,82.6818,78.9364,269.0768,0,U,29349,999,4156,0,-.357E-5,0
DIRECTV 9S,2006-043A,2026-07-12T04:28:29.431200,1.00270977,.000499,2.4826,80.6012,32.8547,142.5473,0,U,29494,999,5163,0,-.113E-5,0
OPTUS D1,2006-043B,2026-07-12T03:58:00.018336,1.00270355,.00033,3.0964,79.3487,30.3604,31.8162,0,U,29495,999,7237,0,-.185E-5,0
BADR-4,2006-051A,2026-07-12T05:07:09.880320,1.00269589,.00047046,2.0667,80.8445,28.2404,292.2686,0,U,29526,999,5151,0,.156E-5,0
WILDBLUE-1,2006-054A,2026-07-12T07:22:38.750880,1.00270998,.00012454,2.8652,80.1685,34.3540,175.1317,0,U,29643,999,5404,0,-.5E-6,0
SKYNET 5A,2007-007B,2026-07-12T02:57:21.693600,1.00270507,.00036896,5.3617,73.4363,41.0189,315.1191,0,U,30794,999,7094,0,-.274E-5,0
ANIK F3,2007-009A,2026-07-11T23:15:35.317728,1.00272014,.00024803,1.2589,83.5537,37.2214,39.2783,0,U,31102,999,4681,0,.1E-7,0
ASTRA 1L,2007-016A,2026-07-12T07:48:38.702880,1.00271550,.00051715,1.3841,81.3738,32.7427,268.7559,0,U,31306,999,4523,0,-.184E-5,0
GALAXY 17 (G-17),2007-016B,2026-07-12T05:22:48.357984,1.00270557,.00035503,3.0323,79.5853,33.3180,172.8914,0,U,31307,999,7005,0,-.207E-5,0
INTELSAT 11 (IS-11),2007-044B,2026-07-12T05:01:55.381728,0.99051203,.00040738,3.6279,78.3654,100.4098,202.5186,0,U,32253,999,6869,0,-.87E-6,0
WGS F1 (USA 195),2007-046A,2026-07-12T04:45:19.473120,1.00268860,.00005495,0.0130,77.5508,139.9607,101.4167,0,U,32258,999,5258,0,-.265E-5,0
SKYNET 5B,2007-056B,2026-07-11T22:13:56.228736,1.00273134,.00037507,5.3129,73.2088,38.9358,176.2440,0,U,32294,999,6844,0,.138E-5,0
ASTRA 4A,2007-057A,2026-07-12T04:58:48.180576,1.00270373,.00022472,0.0470,282.5960,195.2159,251.7840,0,U,32299,999,5189,0,.35E-6,0
HORIZONS-2,2007-063B,2026-07-12T04:36:15.156576,1.00270162,.00035415,2.6639,80.3195,18.3335,186.6993,0,U,32388,999,6806,0,-.254E-5,0
THURAYA-3,2008-001A,2026-07-12T03:32:54.923424,1.00271057,.00020976,6.0301,35.8158,76.4091,294.7397,0,U,32404,999,6774,0,.7E-7,0
THOR 5,2008-006A,2026-07-12T07:32:38.817024,1.00270686,.00022751,0.0529,235.9810,244.2266,282.4031,0,U,32487,999,6756,0,-.7E-7,0
AMC-14,2008-011A,2026-07-12T00:32:21.940224,1.00420296,.00397121,24.0389,20.2198,8.3023,346.5606,0,U,32708,999,6841,0,-.17E-5,0
DIRECTV 11,2008-013A,2026-07-12T05:29:53.772576,1.00272707,.0000193,0.0131,265.5675,253.6452,114.1984,0,U,32729,999,4584,0,-.124E-5,0
ICO G1,2008-016A,2026-07-12T02:48:09.963072,1.00272753,.00022187,5.5300,36.0586,66.5620,136.5857,0,U,32763,999,6679,0,-.174E-5,0
VINASAT-1,2008-018A,2026-07-12T07:17:36.872736,1.00270579,.00013924,0.0355,291.5855,200.2172,39.7416,0,U,32767,999,6684,0,-.326E-5,0
STAR ONE C2,2008-018B,2026-07-12T04:34:26.850720,1.00271950,.00026608,1.3015,82.2273,44.5300,166.9357,0,U,32768,999,6690,0,-.276E-5,0
AMOS-3,2008-022A,2026-07-12T03:31:17.578272,1.00487197,.00029658,0.5171,85.8548,84.6797,230.2120,0,U,32794,999,8258,0,.27E-6,0
GALAXY 18 (G-18),2008-024A,2026-07-12T05:44:38.620032,1.00270349,.00028305,0.0293,51.8695,75.4445,125.9860,0,U,32951,999,4610,0,0,0
ZHONGXING-9,2008-028A,2026-07-12T07:06:22.950144,1.00270301,.00033006,0.8293,85.0346,20.9072,23.2179,0,U,33051,999,6629,0,-.247E-5,0
SKYNET 5C,2008-030A,2026-07-11T20:19:03.115776,1.00272518,.0004038,3.8493,76.7464,43.8105,96.1422,0,U,33055,999,6620,0,-.14E-5,0
TURKSAT 3A,2008-030B,2026-07-12T05:09:24.664320,1.00268689,.00049219,0.0269,68.1003,24.3388,317.0163,0,U,33056,999,5260,0,.149E-5,0
ECHOSTAR 11,2008-035A,2026-07-12T07:22:38.750880,1.00270539,.00022032,1.0675,83.8914,15.5435,191.6276,0,U,33207,999,5146,0,-.57E-6,0
SUPERBIRD-C2,2008-038A,2026-07-12T07:18:51.753024,1.00270173,.00061166,2.4231,80.9502,39.0010,55.9647,0,U,33274,999,10598,0,-.307E-5,0
INMARSAT 4-F3,2008-039A,2026-07-12T07:14:38.791104,1.00271478,.00027893,4.3145,31.6954,84.5633,184.5941,0,U,33278,999,4679,0,-.141E-5,0
NIMIQ 4,2008-044A,2026-07-12T04:34:00.371712,1.00272621,.00019994,0.0038,358.8258,93.7324,184.0202,0,U,33373,999,6523,0,-.218E-5,0
GALAXY 19 (G-19),2008-045A,2026-07-12T04:29:44.310624,1.00272129,.00023314,0.0533,243.6306,237.1759,139.7058,0,U,33376,999,6515,0,-.137E-5,0
